start=new Date('2022-11-22T00:00:00.000Z').valueOf();
sats=[{"FILE":"3666658","EPOCH":"2022-11-21T19:14:16.599264","COUNTRY_CODE":"US","MEAN_ANOMALY":"304.9097","TIME_SYSTEM":"UTC","CENTER_NAME":"EARTH","GP_ID":"218430357","REF_FRAME":"TEME","APOAPSIS":"548.644","TLE_LINE1":"1 45739U 20038K   22325.80158101  .00001934  00000-0  14870-3 0  9999","OBJECT_ID":"2020-038K","PERIAPSIS":"545.721","RCS_SIZE":"LARGE","PERIOD":"95.591","ECCENTRICITY":"0.00021110","BSTAR":"0.00014870000000","NORAD_CAT_ID":"45739","ELEMENT_SET_NO":"999","RA_OF_ASC_NODE":"201.0799","OBJECT_NAME":"STARLINK-1475","LAUNCH_DATE":"2020-06-13","SEMIMAJOR_AXIS":"6925.318","MEAN_MOTION_DOT":"0.00001934","INCLINATION":"53.0533","CLASSIFICATION_TYPE":"U","MEAN_MOTION_DDOT":"0.0000000000000","ARG_OF_PERICENTER":"55.2090","MEAN_MOTION":"15.06410118","EPHEMERIS_TYPE":"0","MEAN_ELEMENT_THEORY":"SGP4","OBJECT_TYPE":"PAYLOAD","TLE_LINE2":"2 45739  53.0533 201.0799 0002111  55.2090 304.9097 15.06410118135292","REV_AT_EPOCH":"13529","SITE":"AFETR","DECAY_DATE":null},{"OBJECT_TYPE":"PAYLOAD","MEAN_ELEMENT_THEORY":"SGP4","TLE_LINE2":"2 45740  53.0543 241.1192 0001583  59.5164 300.5981 15.06396836134730","DECAY_DATE":null,"SITE":"AFETR","REV_AT_EPOCH":"13473","MEAN_MOTION":"15.06396836","EPHEMERIS_TYPE":"0","ELEMENT_SET_NO":"999","NORAD_CAT_ID":"45740","BSTAR":"0.00006239600000","RA_OF_ASC_NODE":"241.1192","MEAN_MOTION_DOT":"0.00000648","SEMIMAJOR_AXIS":"6925.358","LAUNCH_DATE":"2020-06-13","OBJECT_NAME":"STARLINK-1479","ARG_OF_PERICENTER":"59.5164","MEAN_MOTION_DDOT":"0.0000000000000","CLASSIFICATION_TYPE":"U","INCLINATION":"53.0543","COUNTRY_CODE":"US","EPOCH":"2022-11-21T19:05:01.764384","MEAN_ANOMALY":"300.5981","FILE":"3666658","GP_ID":"218431104","REF_FRAME":"TEME","CENTER_NAME":"EARTH","TIME_SYSTEM":"UTC","ECCENTRICITY":"0.00015830","RCS_SIZE":"LARGE","PERIOD":"95.592","PERIAPSIS":"546.127","OBJECT_ID":"2020-038L","TLE_LINE1":"1 45740U 20038L   22325.79515931  .00000648  00000-0  62396-4 0  9995","APOAPSIS":"548.320"},{"OBJECT_TYPE":"PAYLOAD","MEAN_ELEMENT_THEORY":"SGP4","TLE_LINE2":"2 45741  53.0542 240.9442 0001625  60.8999 299.2153 15.06393804134752","DECAY_DATE":null,"SITE":"AFETR","REV_AT_EPOCH":"13475","MEAN_MOTION":"15.06393804","EPHEMERIS_TYPE":"0","ELEMENT_SET_NO":"999","NORAD_CAT_ID":"45741","BSTAR":"0.00017973000000","RA_OF_ASC_NODE":"240.9442","SEMIMAJOR_AXIS":"6925.368","MEAN_MOTION_DOT":"0.00002396","LAUNCH_DATE":"2020-06-13","OBJECT_NAME":"STARLINK-1480","MEAN_MOTION_DDOT":"0.0000000000000","ARG_OF_PERICENTER":"60.8999","CLASSIFICATION_TYPE":"U","INCLINATION":"53.0542","EPOCH":"2022-11-21T19:58:06.597984","COUNTRY_CODE":"US","MEAN_ANOMALY":"299.2153","FILE":"3666658","REF_FRAME":"TEME","GP_ID":"218429856","TIME_SYSTEM":"UTC","CENTER_NAME":"EARTH","ECCENTRICITY":"0.00016250","RCS_SIZE":"LARGE","PERIOD":"95.593","PERIAPSIS":"546.107","OBJECT_ID":"2020-038M","TLE_LINE1":"1 45741U 20038M   22325.83202081  .00002396  00000-0  17973-3 0  9992","APOAPSIS":"548.358"},{"NORAD_CAT_ID":"45742","BSTAR":"0.00000337710000","ELEMENT_SET_NO":"999","RA_OF_ASC_NODE":"242.1679","OBJECT_NAME":"STARLINK-1481","SEMIMAJOR_AXIS":"6925.358","MEAN_MOTION_DOT":"-0.00000231","LAUNCH_DATE":"2020-06-13","INCLINATION":"53.0554","MEAN_MOTION_DDOT":"0.0000000000000","ARG_OF_PERICENTER":"54.2100","CLASSIFICATION_TYPE":"U","FILE":"3666658","EPOCH":"2022-11-21T13:25:20.473536","COUNTRY_CODE":"US","MEAN_ANOMALY":"305.9042","TIME_SYSTEM":"UTC","CENTER_NAME":"EARTH","GP_ID":"218429606","REF_FRAME":"TEME","OBJECT_ID":"2020-038N","TLE_LINE1":"1 45742U 20038N   22325.55926474 -.00000231  00000-0  33771-5 0  9994","APOAPSIS":"548.364","PERIOD":"95.592","RCS_SIZE":"LARGE","ECCENTRICITY":"0.00016480","PERIAPSIS":"546.081","OBJECT_TYPE":"PAYLOAD","MEAN_ELEMENT_THEORY":"SGP4","TLE_LINE2":"2 45742  53.0554 242.1679 0001648  54.2100 305.9042 15.06397071134693","REV_AT_EPOCH":"13469","DECAY_DATE":null,"SITE":"AFETR","MEAN_MOTION":"15.06397071","EPHEMERIS_TYPE":"0"},{"TLE_LINE2":"2 45743  53.0550 243.8132 0001864  50.7901 309.3253 15.06391609134640","REV_AT_EPOCH":"13464","SITE":"AFETR","DECAY_DATE":null,"MEAN_ELEMENT_THEORY":"SGP4","OBJECT_TYPE":"PAYLOAD","MEAN_MOTION":"15.06391609","EPHEMERIS_TYPE":"0","OBJECT_NAME":"STARLINK-1483","LAUNCH_DATE":"2020-06-13","SEMIMAJOR_AXIS":"6925.374","MEAN_MOTION_DOT":"-0.00002097","INCLINATION":"53.0550","CLASSIFICATION_TYPE":"U","ARG_OF_PERICENTER":"50.7901","MEAN_MOTION_DDOT":"0.0000000000000","BSTAR":"-0.00012191000000","NORAD_CAT_ID":"45743","ELEMENT_SET_NO":"999","RA_OF_ASC_NODE":"243.8132","APOAPSIS":"548.530","TLE_LINE1":"1 45743U 20038P   22325.17866234 -.00002097  00000-0 -12191-3 0  9994","OBJECT_ID":"2020-038P","PERIAPSIS":"545.948","RCS_SIZE":"LARGE","ECCENTRICITY":"0.00018640","PERIOD":"95.593","FILE":"3666297","COUNTRY_CODE":"US","MEAN_ANOMALY":"309.3253","EPOCH":"2022-11-21T04:17:16.426176","CENTER_NAME":"EARTH","TIME_SYSTEM":"UTC","REF_FRAME":"TEME","GP_ID":"218395885"},{"MEAN_MOTION":"15.06397107","EPHEMERIS_TYPE":"0","OBJECT_TYPE":"PAYLOAD","MEAN_ELEMENT_THEORY":"SGP4","TLE_LINE2":"2 45744  53.0546 244.0149 0001828  54.6835 305.4325 15.06397107134642","DECAY_DATE":null,"SITE":"AFETR","REV_AT_EPOCH":"13464","COUNTRY_CODE":"US","EPOCH":"2022-11-21T03:36:11.040192","MEAN_ANOMALY":"305.4325","FILE":"3666297","REF_FRAME":"TEME","GP_ID":"218396634","TIME_SYSTEM":"UTC","CENTER_NAME":"EARTH","PERIOD":"95.592","RCS_SIZE":"LARGE","ECCENTRICITY":"0.00018280","PERIAPSIS":"545.956","OBJECT_ID":"2020-038Q","APOAPSIS":"548.488","TLE_LINE1":"1 45744U 20038Q   22325.15012778 -.00000506  00000-0 -15038-4 0  9996","ELEMENT_SET_NO":"999","NORAD_CAT_ID":"45744","BSTAR":"-0.00001503800000","RA_OF_ASC_NODE":"244.0149","SEMIMAJOR_AXIS":"6925.357","MEAN_MOTION_DOT":"-0.00000506","LAUNCH_DATE":"2020-06-13","OBJECT_NAME":"STARLINK-1500","MEAN_MOTION_DDOT":"0.0000000000000","ARG_OF_PERICENTER":"54.6835","CLASSIFICATION_TYPE":"U","INCLINATION":"53.0546"},{"REV_AT_EPOCH":"13464","SITE":"AFETR","DECAY_DATE":null,"TLE_LINE2":"2 45745  53.0561 243.7639 0001631  56.9165 303.1980 15.06401691134649","MEAN_ELEMENT_THEORY":"SGP4","OBJECT_TYPE":"PAYLOAD","EPHEMERIS_TYPE":"0","MEAN_MOTION":"15.06401691","INCLINATION":"53.0561","CLASSIFICATION_TYPE":"U","MEAN_MOTION_DDOT":"0.0000000000000","ARG_OF_PERICENTER":"56.9165","OBJECT_NAME":"STARLINK-1503","LAUNCH_DATE":"2020-06-13","MEAN_MOTION_DOT":"0.00000619","SEMIMAJOR_AXIS":"6925.343","RA_OF_ASC_NODE":"243.7639","BSTAR":"0.00006047400000","NORAD_CAT_ID":"45745","ELEMENT_SET_NO":"999","APOAPSIS":"548.338","TLE_LINE1":"1 45745U 20038R   22325.20541071  .00000619  00000-0  60474-4 0  9993","OBJECT_ID":"2020-038R","PERIAPSIS":"546.079","RCS_SIZE":"LARGE","PERIOD":"95.592","ECCENTRICITY":"0.00016310","CENTER_NAME":"EARTH","TIME_SYSTEM":"UTC","GP_ID":"218396885","REF_FRAME":"TEME","FILE":"3666297","COUNTRY_CODE":"US","MEAN_ANOMALY":"303.1980","EPOCH":"2022-11-21T04:55:47.485344"},{"CENTER_NAME":"EARTH","TIME_SYSTEM":"UTC","REF_FRAME":"TEME","GP_ID":"218430107","FILE":"3666658","COUNTRY_CODE":"US","MEAN_ANOMALY":"301.6759","EPOCH":"2022-11-21T19:36:52.629984","OBJECT_ID":"2020-038S","TLE_LINE1":"1 45746U 20038S   22325.81727581  .00000509  00000-0  53052-4 0  9995","APOAPSIS":"548.381","PERIOD":"95.592","RCS_SIZE":"LARGE","ECCENTRICITY":"0.00016700","PERIAPSIS":"546.068","RA_OF_ASC_NODE":"241.0224","NORAD_CAT_ID":"45746","BSTAR":"0.00005305200000","ELEMENT_SET_NO":"999","INCLINATION":"53.0542","ARG_OF_PERICENTER":"58.4392","MEAN_MOTION_DDOT":"0.0000000000000","CLASSIFICATION_TYPE":"U","OBJECT_NAME":"STARLINK-1504","SEMIMAJOR_AXIS":"6925.359","MEAN_MOTION_DOT":"0.00000509","LAUNCH_DATE":"2020-06-13","EPHEMERIS_TYPE":"0","MEAN_MOTION":"15.06396544","OBJECT_TYPE":"PAYLOAD","MEAN_ELEMENT_THEORY":"SGP4","REV_AT_EPOCH":"13473","DECAY_DATE":null,"SITE":"AFETR","TLE_LINE2":"2 45746  53.0542 241.0224 0001670  58.4392 301.6759 15.06396544134739"},{"TLE_LINE2":"2 45747  53.0534 241.0045 0001705  56.6480 303.4672 15.06399794134744","REV_AT_EPOCH":"13474","SITE":"AFETR","DECAY_DATE":null,"MEAN_ELEMENT_THEORY":"SGP4","OBJECT_TYPE":"PAYLOAD","MEAN_MOTION":"15.06399794","EPHEMERIS_TYPE":"0","OBJECT_NAME":"STARLINK-1506","LAUNCH_DATE":"2020-06-13","SEMIMAJOR_AXIS":"6925.349","MEAN_MOTION_DOT":"0.00000859","INCLINATION":"53.0534","CLASSIFICATION_TYPE":"U","MEAN_MOTION_DDOT":"0.0000000000000","ARG_OF_PERICENTER":"56.6480","BSTAR":"0.00007658200000","NORAD_CAT_ID":"45747","ELEMENT_SET_NO":"999","RA_OF_ASC_NODE":"241.0045","APOAPSIS":"548.395","TLE_LINE1":"1 45747U 20038T   22325.82095947  .00000859  00000-0  76582-4 0  9992","OBJECT_ID":"2020-038T","PERIAPSIS":"546.033","PERIOD":"95.592","RCS_SIZE":"LARGE","ECCENTRICITY":"0.00017050","FILE":"3666658","COUNTRY_CODE":"US","MEAN_ANOMALY":"303.4672","EPOCH":"2022-11-21T19:42:10.898208","CENTER_NAME":"EARTH","TIME_SYSTEM":"UTC","REF_FRAME":"TEME","GP_ID":"218430358"},{"SITE":"AFETR","DECAY_DATE":null,"REV_AT_EPOCH":"13463","TLE_LINE2":"2 45748  53.0553 244.0151 0001496  70.1742 289.9408 15.06392793134631","MEAN_ELEMENT_THEORY":"SGP4","OBJECT_TYPE":"PAYLOAD","EPHEMERIS_TYPE":"0","MEAN_MOTION":"15.06392793","CLASSIFICATION_TYPE":"U","ARG_OF_PERICENTER":"70.1742","MEAN_MOTION_DDOT":"0.0000000000000","INCLINATION":"53.0553","LAUNCH_DATE":"2020-06-13","SEMIMAJOR_AXIS":"6925.371","MEAN_MOTION_DOT":"0.00001287","OBJECT_NAME":"STARLINK-1507","RA_OF_ASC_NODE":"244.0151","ELEMENT_SET_NO":"999","BSTAR":"0.00010532000000","NORAD_CAT_ID":"45748","PERIAPSIS":"546.200","RCS_SIZE":"LARGE","PERIOD":"95.593","ECCENTRICITY":"0.00014960","APOAPSIS":"548.272","TLE_LINE1":"1 45748U 20038U   22325.14549280  .00001287  00000-0  10532-3 0  9990","OBJECT_ID":"2020-038U","REF_FRAME":"TEME","GP_ID":"218396135","CENTER_NAME":"EARTH","TIME_SYSTEM":"UTC","MEAN_ANOMALY":"289.9408","COUNTRY_CODE":"US","EPOCH":"2022-11-21T03:29:30.577920","FILE":"3666297"}];
